ONEWEB-0558             
1 56059U 23043P   25300.37467338  .00000231  00000+0  52877-3 0  9995
2 56059  87.9166 290.4342 0002394  94.6941 265.4466 13.21828383127483
ONEWEB-0559             
1 56060U 23043Q   25300.43884378  .00000004  00000+0 -21066-4 0  9997
2 56060  87.9168 290.4144 0002012  97.7350 262.4012 13.21827408127506
ONEWEB-0566             
1 56061U 23043R   25300.88644220  .00000007  00000+0 -13814-4 0  9992
2 56061  87.9166 290.3223 0002155  95.7541 264.3839 13.21824851127541
ONEWEB-0568             
1 56062U 23043S   25300.84023075  .00000098  00000+0  22379-3 0  9992
2 56062  87.8992 275.0491 0001939  76.3516 283.7830 13.16595337128401
ONEWEB-0574             
1 56063U 23043T   25300.87984162  .00000002  00000+0 -26129-4 0  9993
2 56063  87.9168 290.3121 0001689  87.4025 272.7302 13.21826330127584
ONEWEB-0575             
1 56064U 23043U   25300.37790398  .00000121  00000+0  28258-3 0  9990
2 56064  87.8985 275.1440 0001547  76.1923 283.9380 13.16594861128330
ONEWEB-0576             
1 56065U 23043V   25300.43491898  .00000000  00000+0 -32456-4 0  9994
2 56065  87.8993 275.1308 0001865  79.1590 280.9750 13.16593786128332
ONEWEB-0577             
1 56066U 23043W   25300.44125023  .00000020  00000+0  17795-4 0  9990
2 56066  87.8987 275.1297 0001297  73.1485 286.9788 13.16594142128366
